{
 "type": "FeatureCollection",
 "features": [
  {
   "type": "Feature",
   "geometry": {
    "type": "Polygon",
    "coordinates": [
     [
      [
       75.8311279,
       22.6568645
      ],
      [
       75.8431279,
       22.6568645
      ],
      [
       75.8431279,
       22.6688645
      ],
      [
       75.8311279,
       22.6688645
      ],
      [
       75.8311279,
       22.6568645
      ]
     ]
    ]
   },
   "properties": {
    "zone_id": "IND-001",
    "name": "Ward 1 - Sector 4",
    "city": "Indore",
    "ward": "Ward 1",
    "pipe_length_km": null,
    "population": null
   }
  },
  {
   "type": "Feature",
   "geometry": {
    "type": "Polygon",
    "coordinates": [
     [
      [
       75.8431279,
       22.6568645
      ],
      [
       75.8551279,
       22.6568645
      ],
      [
       75.8551279,
       22.6688645
      ],
      [
       75.8431279,
       22.6688645
      ],
      [
       75.8431279,
       22.6568645
      ]
     ]
    ]
   },
   "properties": {
    "zone_id": "IND-002",
    "name": "Ward 1 - Sector 5",
    "city": "Indore",
    "ward": "Ward 1",
    "pipe_length_km": null,
    "population": null
   }
  },
  {
   "type": "Feature",
   "geometry": {
    "type": "Polygon",
    "coordinates": [
     [
      [
       75.8191279,
       22.6688645
      ],
      [
       75.8311279,
       22.6688645
      ],
      [
       75.8311279,
       22.680864500000002
      ],
      [
       75.8191279,
       22.680864500000002
      ],
      [
       75.8191279,
       22.6688645
      ]
     ]
    ]
   },
   "properties": {
    "zone_id": "IND-003",
    "name": "Ward 2 - Sector 3",
    "city": "Indore",
    "ward": "Ward 2",
    "pipe_length_km": null,
    "population": null
   }
  },
  {
   "type": "Feature",
   "geometry": {
    "type": "Polygon",
    "coordinates": [
     [
      [
       75.8311279,
       22.6688645
      ],
      [
       75.8431279,
       22.6688645
      ],
      [
       75.8431279,
       22.680864500000002
      ],
      [
       75.8311279,
       22.680864500000002
      ],
      [
       75.8311279,
       22.6688645
      ]
     ]
    ]
   },
   "properties": {
    "zone_id": "IND-004",
    "name": "Ward 2 - Sector 4",
    "city": "Indore",
    "ward": "Ward 2",
    "pipe_length_km": null,
    "population": null
   }
  },
  {
   "type": "Feature",
   "geometry": {
    "type": "Polygon",
    "coordinates": [
     [
      [
       75.8431279,
       22.6688645
      ],
      [
       75.8551279,
       22.6688645
      ],
      [
       75.8551279,
       22.680864500000002
      ],
      [
       75.8431279,
       22.680864500000002
      ],
      [
       75.8431279,
       22.6688645
      ]
     ]
    ]
   },
   "properties": {
    "zone_id": "IND-005",
    "name": "Ward 2 - Sector 5",
    "city": "Indore",
    "ward": "Ward 2",
    "pipe_length_km": null,
    "population": null
   }
  },
  {
   "type": "Feature",
   "geometry": {
    "type": "Polygon",
    "coordinates": [
     [
      [
       75.8551279,
       22.6688645
      ],
      [
       75.8671279,
       22.6688645
      ],
      [
       75.8671279,
       22.680864500000002
      ],
      [
       75.8551279,
       22.680864500000002
      ],
      [
       75.8551279,
       22.6688645
      ]
     ]
    ]
   },
   "properties": {
    "zone_id": "IND-006",
    "name": "Ward 2 - Sector 6",
    "city": "Indore",
    "ward": "Ward 2",
    "pipe_length_km": null,
    "population": null
   }
  },
  {
   "type": "Feature",
   "geometry": {
    "type": "Polygon",
    "coordinates": [
     [
      [
       75.8671279,
       22.6688645
      ],
      [
       75.8791279,
       22.6688645
      ],
      [
       75.8791279,
       22.680864500000002
      ],
      [
       75.8671279,
       22.680864500000002
      ],
      [
       75.8671279,
       22.6688645
      ]
     ]
    ]
   },
   "properties": {
    "zone_id": "IND-007",
    "name": "Ward 2 - Sector 7",
    "city": "Indore",
    "ward": "Ward 2",
    "pipe_length_km": null,
    "population": null
   }
  },
  {
   "type": "Feature",
   "geometry": {
    "type": "Polygon",
    "coordinates": [
     [
      [
       75.8191279,
       22.680864500000002
      ],
      [
       75.8311279,
       22.680864500000002
      ],
      [
       75.8311279,
       22.692864500000002
      ],
      [
       75.8191279,
       22.692864500000002
      ],
      [
       75.8191279,
       22.680864500000002
      ]
     ]
    ]
   },
   "properties": {
    "zone_id": "IND-008",
    "name": "Ward 3 - Sector 3",
    "city": "Indore",
    "ward": "Ward 3",
    "pipe_length_km": null,
    "population": null
   }
  },
  {
   "type": "Feature",
   "geometry": {
    "type": "Polygon",
    "coordinates": [
     [
      [
       75.8311279,
       22.680864500000002
      ],
      [
       75.8431279,
       22.680864500000002
      ],
      [
       75.8431279,
       22.692864500000002
      ],
      [
       75.8311279,
       22.692864500000002
      ],
      [
       75.8311279,
       22.680864500000002
      ]
     ]
    ]
   },
   "properties": {
    "zone_id": "IND-009",
    "name": "Ward 3 - Sector 4",
    "city": "Indore",
    "ward": "Ward 3",
    "pipe_length_km": null,
    "population": null
   }
  },
  {
   "type": "Feature",
   "geometry": {
    "type": "Polygon",
    "coordinates": [
     [
      [
       75.8431279,
       22.680864500000002
      ],
      [
       75.8551279,
       22.680864500000002
      ],
      [
       75.8551279,
       22.692864500000002
      ],
      [
       75.8431279,
       22.692864500000002
      ],
      [
       75.8431279,
       22.680864500000002
      ]
     ]
    ]
   },
   "properties": {
    "zone_id": "IND-010",
    "name": "Ward 3 - Sector 5",
    "city": "Indore",
    "ward": "Ward 3",
    "pipe_length_km": null,
    "population": null
   }
  },
  {
   "type": "Feature",
   "geometry": {
    "type": "Polygon",
    "coordinates": [
     [
      [
       75.8551279,
       22.680864500000002
      ],
      [
       75.8671279,
       22.680864500000002
      ],
      [
       75.8671279,
       22.692864500000002
      ],
      [
       75.8551279,
       22.692864500000002
      ],
      [
       75.8551279,
       22.680864500000002
      ]
     ]
    ]
   },
   "properties": {
    "zone_id": "IND-011",
    "name": "Ward 3 - Sector 6",
    "city": "Indore",
    "ward": "Ward 3",
    "pipe_length_km": null,
    "population": null
   }
  },
  {
   "type": "Feature",
   "geometry": {
    "type": "Polygon",
    "coordinates": [
     [
      [
       75.8671279,
       22.680864500000002
      ],
      [
       75.8791279,
       22.680864500000002
      ],
      [
       75.8791279,
       22.692864500000002
      ],
      [
       75.8671279,
       22.692864500000002
      ],
      [
       75.8671279,
       22.680864500000002
      ]
     ]
    ]
   },
   "properties": {
    "zone_id": "IND-012",
    "name": "Ward 3 - Sector 7",
    "city": "Indore",
    "ward": "Ward 3",
    "pipe_length_km": null,
    "population": null
   }
  },
  {
   "type": "Feature",
   "geometry": {
    "type": "Polygon",
    "coordinates": [
     [
      [
       75.8791279,
       22.680864500000002
      ],
      [
       75.8911279,
       22.680864500000002
      ],
      [
       75.8911279,
       22.692864500000002
      ],
      [
       75.8791279,
       22.692864500000002
      ],
      [
       75.8791279,
       22.680864500000002
      ]
     ]
    ]
   },
   "properties": {
    "zone_id": "IND-013",
    "name": "Ward 3 - Sector 8",
    "city": "Indore",
    "ward": "Ward 3",
    "pipe_length_km": null,
    "population": null
   }
  },
  {
   "type": "Feature",
   "geometry": {
    "type": "Polygon",
    "coordinates": [
     [
      [
       75.9031279,
       22.680864500000002
      ],
      [
       75.9151279,
       22.680864500000002
      ],
      [
       75.9151279,
       22.692864500000002
      ],
      [
       75.9031279,
       22.692864500000002
      ],
      [
       75.9031279,
       22.680864500000002
      ]
     ]
    ]
   },
   "properties": {
    "zone_id": "IND-014",
    "name": "Ward 3 - Sector 10",
    "city": "Indore",
    "ward": "Ward 3",
    "pipe_length_km": null,
    "population": null
   }
  },
  {
   "type": "Feature",
   "geometry": {
    "type": "Polygon",
    "coordinates": [
     [
      [
       75.8191279,
       22.692864500000002
      ],
      [
       75.8311279,
       22.692864500000002
      ],
      [
       75.8311279,
       22.704864500000003
      ],
      [
       75.8191279,
       22.704864500000003
      ],
      [
       75.8191279,
       22.692864500000002
      ]
     ]
    ]
   },
   "properties": {
    "zone_id": "IND-015",
    "name": "Ward 4 - Sector 3",
    "city": "Indore",
    "ward": "Ward 4",
    "pipe_length_km": null,
    "population": null
   }
  },
  {
   "type": "Feature",
   "geometry": {
    "type": "Polygon",
    "coordinates": [
     [
      [
       75.8311279,
       22.692864500000002
      ],
      [
       75.8431279,
       22.692864500000002
      ],
      [
       75.8431279,
       22.704864500000003
      ],
      [
       75.8311279,
       22.704864500000003
      ],
      [
       75.8311279,
       22.692864500000002
      ]
     ]
    ]
   },
   "properties": {
    "zone_id": "IND-016",
    "name": "Ward 4 - Sector 4",
    "city": "Indore",
    "ward": "Ward 4",
    "pipe_length_km": null,
    "population": null
   }
  },
  {
   "type": "Feature",
   "geometry": {
    "type": "Polygon",
    "coordinates": [
     [
      [
       75.8431279,
       22.692864500000002
      ],
      [
       75.8551279,
       22.692864500000002
      ],
      [
       75.8551279,
       22.704864500000003
      ],
      [
       75.8431279,
       22.704864500000003
      ],
      [
       75.8431279,
       22.692864500000002
      ]
     ]
    ]
   },
   "properties": {
    "zone_id": "IND-017",
    "name": "Ward 4 - Sector 5",
    "city": "Indore",
    "ward": "Ward 4",
    "pipe_length_km": null,
    "population": null
   }
  },
  {
   "type": "Feature",
   "geometry": {
    "type": "Polygon",
    "coordinates": [
     [
      [
       75.8551279,
       22.692864500000002
      ],
      [
       75.8671279,
       22.692864500000002
      ],
      [
       75.8671279,
       22.704864500000003
      ],
      [
       75.8551279,
       22.704864500000003
      ],
      [
       75.8551279,
       22.692864500000002
      ]
     ]
    ]
   },
   "properties": {
    "zone_id": "IND-018",
    "name": "Ward 4 - Sector 6",
    "city": "Indore",
    "ward": "Ward 4",
    "pipe_length_km": null,
    "population": null
   }
  },
  {
   "type": "Feature",
   "geometry": {
    "type": "Polygon",
    "coordinates": [
     [
      [
       75.8671279,
       22.692864500000002
      ],
      [
       75.8791279,
       22.692864500000002
      ],
      [
       75.8791279,
       22.704864500000003
      ],
      [
       75.8671279,
       22.704864500000003
      ],
      [
       75.8671279,
       22.692864500000002
      ]
     ]
    ]
   },
   "properties": {
    "zone_id": "IND-019",
    "name": "Ward 4 - Sector 7",
    "city": "Indore",
    "ward": "Ward 4",
    "pipe_length_km": null,
    "population": null
   }
  },
  {
   "type": "Feature",
   "geometry": {
    "type": "Polygon",
    "coordinates": [
     [
      [
       75.8791279,
       22.692864500000002
      ],
      [
       75.8911279,
       22.692864500000002
      ],
      [
       75.8911279,
       22.704864500000003
      ],
      [
       75.8791279,
       22.704864500000003
      ],
      [
       75.8791279,
       22.692864500000002
      ]
     ]
    ]
   },
   "properties": {
    "zone_id": "IND-020",
    "name": "Ward 4 - Sector 8",
    "city": "Indore",
    "ward": "Ward 4",
    "pipe_length_km": null,
    "population": null
   }
  },
  {
   "type": "Feature",
   "geometry": {
    "type": "Polygon",
    "coordinates": [
     [
      [
       75.8911279,
       22.692864500000002
      ],
      [
       75.9031279,
       22.692864500000002
      ],
      [
       75.9031279,
       22.704864500000003
      ],
      [
       75.8911279,
       22.704864500000003
      ],
      [
       75.8911279,
       22.692864500000002
      ]
     ]
    ]
   },
   "properties": {
    "zone_id": "IND-021",
    "name": "Ward 4 - Sector 9",
    "city": "Indore",
    "ward": "Ward 4",
    "pipe_length_km": null,
    "population": null
   }
  },
  {
   "type": "Feature",
   "geometry": {
    "type": "Polygon",
    "coordinates": [
     [
      [
       75.9031279,
       22.692864500000002
      ],
      [
       75.9151279,
       22.692864500000002
      ],
      [
       75.9151279,
       22.704864500000003
      ],
      [
       75.9031279,
       22.704864500000003
      ],
      [
       75.9031279,
       22.692864500000002
      ]
     ]
    ]
   },
   "properties": {
    "zone_id": "IND-022",
    "name": "Ward 4 - Sector 10",
    "city": "Indore",
    "ward": "Ward 4",
    "pipe_length_km": null,
    "population": null
   }
  },
  {
   "type": "Feature",
   "geometry": {
    "type": "Polygon",
    "coordinates": [
     [
      [
       75.8071279,
       22.7048645
      ],
      [
       75.8191279,
       22.7048645
      ],
      [
       75.8191279,
       22.7168645
      ],
      [
       75.8071279,
       22.7168645
      ],
      [
       75.8071279,
       22.7048645
      ]
     ]
    ]
   },
   "properties": {
    "zone_id": "IND-023",
    "name": "Ward 5 - Sector 2",
    "city": "Indore",
    "ward": "Ward 5",
    "pipe_length_km": null,
    "population": null
   }
  },
  {
   "type": "Feature",
   "geometry": {
    "type": "Polygon",
    "coordinates": [
     [
      [
       75.8191279,
       22.7048645
      ],
      [
       75.8311279,
       22.7048645
      ],
      [
       75.8311279,
       22.7168645
      ],
      [
       75.8191279,
       22.7168645
      ],
      [
       75.8191279,
       22.7048645
      ]
     ]
    ]
   },
   "properties": {
    "zone_id": "IND-024",
    "name": "Ward 5 - Sector 3",
    "city": "Indore",
    "ward": "Ward 5",
    "pipe_length_km": null,
    "population": null
   }
  },
  {
   "type": "Feature",
   "geometry": {
    "type": "Polygon",
    "coordinates": [
     [
      [
       75.8311279,
       22.7048645
      ],
      [
       75.8431279,
       22.7048645
      ],
      [
       75.8431279,
       22.7168645
      ],
      [
       75.8311279,
       22.7168645
      ],
      [
       75.8311279,
       22.7048645
      ]
     ]
    ]
   },
   "properties": {
    "zone_id": "IND-025",
    "name": "Ward 5 - Sector 4",
    "city": "Indore",
    "ward": "Ward 5",
    "pipe_length_km": null,
    "population": null
   }
  },
  {
   "type": "Feature",
   "geometry": {
    "type": "Polygon",
    "coordinates": [
     [
      [
       75.8431279,
       22.7048645
      ],
      [
       75.8551279,
       22.7048645
      ],
      [
       75.8551279,
       22.7168645
      ],
      [
       75.8431279,
       22.7168645
      ],
      [
       75.8431279,
       22.7048645
      ]
     ]
    ]
   },
   "properties": {
    "zone_id": "IND-026",
    "name": "Ward 5 - Sector 5",
    "city": "Indore",
    "ward": "Ward 5",
    "pipe_length_km": null,
    "population": null
   }
  },
  {
   "type": "Feature",
   "geometry": {
    "type": "Polygon",
    "coordinates": [
     [
      [
       75.8551279,
       22.7048645
      ],
      [
       75.8671279,
       22.7048645
      ],
      [
       75.8671279,
       22.7168645
      ],
      [
       75.8551279,
       22.7168645
      ],
      [
       75.8551279,
       22.7048645
      ]
     ]
    ]
   },
   "properties": {
    "zone_id": "IND-027",
    "name": "Ward 5 - Sector 6",
    "city": "Indore",
    "ward": "Ward 5",
    "pipe_length_km": null,
    "population": null
   }
  },
  {
   "type": "Feature",
   "geometry": {
    "type": "Polygon",
    "coordinates": [
     [
      [
       75.8671279,
       22.7048645
      ],
      [
       75.8791279,
       22.7048645
      ],
      [
       75.8791279,
       22.7168645
      ],
      [
       75.8671279,
       22.7168645
      ],
      [
       75.8671279,
       22.7048645
      ]
     ]
    ]
   },
   "properties": {
    "zone_id": "IND-028",
    "name": "Ward 5 - Sector 7",
    "city": "Indore",
    "ward": "Ward 5",
    "pipe_length_km": null,
    "population": null
   }
  },
  {
   "type": "Feature",
   "geometry": {
    "type": "Polygon",
    "coordinates": [
     [
      [
       75.8791279,
       22.7048645
      ],
      [
       75.8911279,
       22.7048645
      ],
      [
       75.8911279,
       22.7168645
      ],
      [
       75.8791279,
       22.7168645
      ],
      [
       75.8791279,
       22.7048645
      ]
     ]
    ]
   },
   "properties": {
    "zone_id": "IND-029",
    "name": "Ward 5 - Sector 8",
    "city": "Indore",
    "ward": "Ward 5",
    "pipe_length_km": null,
    "population": null
   }
  },
  {
   "type": "Feature",
   "geometry": {
    "type": "Polygon",
    "coordinates": [
     [
      [
       75.8911279,
       22.7048645
      ],
      [
       75.9031279,
       22.7048645
      ],
      [
       75.9031279,
       22.7168645
      ],
      [
       75.8911279,
       22.7168645
      ],
      [
       75.8911279,
       22.7048645
      ]
     ]
    ]
   },
   "properties": {
    "zone_id": "IND-030",
    "name": "Ward 5 - Sector 9",
    "city": "Indore",
    "ward": "Ward 5",
    "pipe_length_km": null,
    "population": null
   }
  },
  {
   "type": "Feature",
   "geometry": {
    "type": "Polygon",
    "coordinates": [
     [
      [
       75.9031279,
       22.7048645
      ],
      [
       75.9151279,
       22.7048645
      ],
      [
       75.9151279,
       22.7168645
      ],
      [
       75.9031279,
       22.7168645
      ],
      [
       75.9031279,
       22.7048645
      ]
     ]
    ]
   },
   "properties": {
    "zone_id": "IND-031",
    "name": "Ward 5 - Sector 10",
    "city": "Indore",
    "ward": "Ward 5",
    "pipe_length_km": null,
    "population": null
   }
  },
  {
   "type": "Feature",
   "geometry": {
    "type": "Polygon",
    "coordinates": [
     [
      [
       75.7951279,
       22.7168645
      ],
      [
       75.8071279,
       22.7168645
      ],
      [
       75.8071279,
       22.7288645
      ],
      [
       75.7951279,
       22.7288645
      ],
      [
       75.7951279,
       22.7168645
      ]
     ]
    ]
   },
   "properties": {
    "zone_id": "IND-032",
    "name": "Ward 6 - Sector 1",
    "city": "Indore",
    "ward": "Ward 6",
    "pipe_length_km": null,
    "population": null
   }
  },
  {
   "type": "Feature",
   "geometry": {
    "type": "Polygon",
    "coordinates": [
     [
      [
       75.8071279,
       22.7168645
      ],
      [
       75.8191279,
       22.7168645
      ],
      [
       75.8191279,
       22.7288645
      ],
      [
       75.8071279,
       22.7288645
      ],
      [
       75.8071279,
       22.7168645
      ]
     ]
    ]
   },
   "properties": {
    "zone_id": "IND-033",
    "name": "Ward 6 - Sector 2",
    "city": "Indore",
    "ward": "Ward 6",
    "pipe_length_km": null,
    "population": null
   }
  },
  {
   "type": "Feature",
   "geometry": {
    "type": "Polygon",
    "coordinates": [
     [
      [
       75.8191279,
       22.7168645
      ],
      [
       75.8311279,
       22.7168645
      ],
      [
       75.8311279,
       22.7288645
      ],
      [
       75.8191279,
       22.7288645
      ],
      [
       75.8191279,
       22.7168645
      ]
     ]
    ]
   },
   "properties": {
    "zone_id": "IND-034",
    "name": "Ward 6 - Sector 3",
    "city": "Indore",
    "ward": "Ward 6",
    "pipe_length_km": null,
    "population": null
   }
  },
  {
   "type": "Feature",
   "geometry": {
    "type": "Polygon",
    "coordinates": [
     [
      [
       75.8311279,
       22.7168645
      ],
      [
       75.8431279,
       22.7168645
      ],
      [
       75.8431279,
       22.7288645
      ],
      [
       75.8311279,
       22.7288645
      ],
      [
       75.8311279,
       22.7168645
      ]
     ]
    ]
   },
   "properties": {
    "zone_id": "IND-035",
    "name": "Ward 6 - Sector 4",
    "city": "Indore",
    "ward": "Ward 6",
    "pipe_length_km": null,
    "population": null
   }
  },
  {
   "type": "Feature",
   "geometry": {
    "type": "Polygon",
    "coordinates": [
     [
      [
       75.8431279,
       22.7168645
      ],
      [
       75.8551279,
       22.7168645
      ],
      [
       75.8551279,
       22.7288645
      ],
      [
       75.8431279,
       22.7288645
      ],
      [
       75.8431279,
       22.7168645
      ]
     ]
    ]
   },
   "properties": {
    "zone_id": "IND-036",
    "name": "Ward 6 - Sector 5",
    "city": "Indore",
    "ward": "Ward 6",
    "pipe_length_km": null,
    "population": null
   }
  },
  {
   "type": "Feature",
   "geometry": {
    "type": "Polygon",
    "coordinates": [
     [
      [
       75.8551279,
       22.7168645
      ],
      [
       75.8671279,
       22.7168645
      ],
      [
       75.8671279,
       22.7288645
      ],
      [
       75.8551279,
       22.7288645
      ],
      [
       75.8551279,
       22.7168645
      ]
     ]
    ]
   },
   "properties": {
    "zone_id": "IND-037",
    "name": "Ward 6 - Sector 6",
    "city": "Indore",
    "ward": "Ward 6",
    "pipe_length_km": null,
    "population": null
   }
  },
  {
   "type": "Feature",
   "geometry": {
    "type": "Polygon",
    "coordinates": [
     [
      [
       75.8671279,
       22.7168645
      ],
      [
       75.8791279,
       22.7168645
      ],
      [
       75.8791279,
       22.7288645
      ],
      [
       75.8671279,
       22.7288645
      ],
      [
       75.8671279,
       22.7168645
      ]
     ]
    ]
   },
   "properties": {
    "zone_id": "IND-038",
    "name": "Ward 6 - Sector 7",
    "city": "Indore",
    "ward": "Ward 6",
    "pipe_length_km": null,
    "population": null
   }
  },
  {
   "type": "Feature",
   "geometry": {
    "type": "Polygon",
    "coordinates": [
     [
      [
       75.8791279,
       22.7168645
      ],
      [
       75.8911279,
       22.7168645
      ],
      [
       75.8911279,
       22.7288645
      ],
      [
       75.8791279,
       22.7288645
      ],
      [
       75.8791279,
       22.7168645
      ]
     ]
    ]
   },
   "properties": {
    "zone_id": "IND-039",
    "name": "Ward 6 - Sector 8",
    "city": "Indore",
    "ward": "Ward 6",
    "pipe_length_km": null,
    "population": null
   }
  },
  {
   "type": "Feature",
   "geometry": {
    "type": "Polygon",
    "coordinates": [
     [
      [
       75.8911279,
       22.7168645
      ],
      [
       75.9031279,
       22.7168645
      ],
      [
       75.9031279,
       22.7288645
      ],
      [
       75.8911279,
       22.7288645
      ],
      [
       75.8911279,
       22.7168645
      ]
     ]
    ]
   },
   "properties": {
    "zone_id": "IND-040",
    "name": "Ward 6 - Sector 9",
    "city": "Indore",
    "ward": "Ward 6",
    "pipe_length_km": null,
    "population": null
   }
  },
  {
   "type": "Feature",
   "geometry": {
    "type": "Polygon",
    "coordinates": [
     [
      [
       75.9031279,
       22.7168645
      ],
      [
       75.9151279,
       22.7168645
      ],
      [
       75.9151279,
       22.7288645
      ],
      [
       75.9031279,
       22.7288645
      ],
      [
       75.9031279,
       22.7168645
      ]
     ]
    ]
   },
   "properties": {
    "zone_id": "IND-041",
    "name": "Ward 6 - Sector 10",
    "city": "Indore",
    "ward": "Ward 6",
    "pipe_length_km": null,
    "population": null
   }
  },
  {
   "type": "Feature",
   "geometry": {
    "type": "Polygon",
    "coordinates": [
     [
      [
       75.9151279,
       22.7168645
      ],
      [
       75.9271279,
       22.7168645
      ],
      [
       75.9271279,
       22.7288645
      ],
      [
       75.9151279,
       22.7288645
      ],
      [
       75.9151279,
       22.7168645
      ]
     ]
    ]
   },
   "properties": {
    "zone_id": "IND-042",
    "name": "Ward 6 - Sector 11",
    "city": "Indore",
    "ward": "Ward 6",
    "pipe_length_km": null,
    "population": null
   }
  },
  {
   "type": "Feature",
   "geometry": {
    "type": "Polygon",
    "coordinates": [
     [
      [
       75.8311279,
       22.7288645
      ],
      [
       75.8431279,
       22.7288645
      ],
      [
       75.8431279,
       22.7408645
      ],
      [
       75.8311279,
       22.7408645
      ],
      [
       75.8311279,
       22.7288645
      ]
     ]
    ]
   },
   "properties": {
    "zone_id": "IND-043",
    "name": "Ward 7 - Sector 4",
    "city": "Indore",
    "ward": "Ward 7",
    "pipe_length_km": null,
    "population": null
   }
  },
  {
   "type": "Feature",
   "geometry": {
    "type": "Polygon",
    "coordinates": [
     [
      [
       75.8431279,
       22.7288645
      ],
      [
       75.8551279,
       22.7288645
      ],
      [
       75.8551279,
       22.7408645
      ],
      [
       75.8431279,
       22.7408645
      ],
      [
       75.8431279,
       22.7288645
      ]
     ]
    ]
   },
   "properties": {
    "zone_id": "IND-044",
    "name": "Ward 7 - Sector 5",
    "city": "Indore",
    "ward": "Ward 7",
    "pipe_length_km": null,
    "population": null
   }
  },
  {
   "type": "Feature",
   "geometry": {
    "type": "Polygon",
    "coordinates": [
     [
      [
       75.8551279,
       22.7288645
      ],
      [
       75.8671279,
       22.7288645
      ],
      [
       75.8671279,
       22.7408645
      ],
      [
       75.8551279,
       22.7408645
      ],
      [
       75.8551279,
       22.7288645
      ]
     ]
    ]
   },
   "properties": {
    "zone_id": "IND-045",
    "name": "Ward 7 - Sector 6",
    "city": "Indore",
    "ward": "Ward 7",
    "pipe_length_km": null,
    "population": null
   }
  },
  {
   "type": "Feature",
   "geometry": {
    "type": "Polygon",
    "coordinates": [
     [
      [
       75.8671279,
       22.7288645
      ],
      [
       75.8791279,
       22.7288645
      ],
      [
       75.8791279,
       22.7408645
      ],
      [
       75.8671279,
       22.7408645
      ],
      [
       75.8671279,
       22.7288645
      ]
     ]
    ]
   },
   "properties": {
    "zone_id": "IND-046",
    "name": "Ward 7 - Sector 7",
    "city": "Indore",
    "ward": "Ward 7",
    "pipe_length_km": null,
    "population": null
   }
  },
  {
   "type": "Feature",
   "geometry": {
    "type": "Polygon",
    "coordinates": [
     [
      [
       75.8791279,
       22.7288645
      ],
      [
       75.8911279,
       22.7288645
      ],
      [
       75.8911279,
       22.7408645
      ],
      [
       75.8791279,
       22.7408645
      ],
      [
       75.8791279,
       22.7288645
      ]
     ]
    ]
   },
   "properties": {
    "zone_id": "IND-047",
    "name": "Ward 7 - Sector 8",
    "city": "Indore",
    "ward": "Ward 7",
    "pipe_length_km": null,
    "population": null
   }
  },
  {
   "type": "Feature",
   "geometry": {
    "type": "Polygon",
    "coordinates": [
     [
      [
       75.8911279,
       22.7288645
      ],
      [
       75.9031279,
       22.7288645
      ],
      [
       75.9031279,
       22.7408645
      ],
      [
       75.8911279,
       22.7408645
      ],
      [
       75.8911279,
       22.7288645
      ]
     ]
    ]
   },
   "properties": {
    "zone_id": "IND-048",
    "name": "Ward 7 - Sector 9",
    "city": "Indore",
    "ward": "Ward 7",
    "pipe_length_km": null,
    "population": null
   }
  },
  {
   "type": "Feature",
   "geometry": {
    "type": "Polygon",
    "coordinates": [
     [
      [
       75.9031279,
       22.7288645
      ],
      [
       75.9151279,
       22.7288645
      ],
      [
       75.9151279,
       22.7408645
      ],
      [
       75.9031279,
       22.7408645
      ],
      [
       75.9031279,
       22.7288645
      ]
     ]
    ]
   },
   "properties": {
    "zone_id": "IND-049",
    "name": "Ward 7 - Sector 10",
    "city": "Indore",
    "ward": "Ward 7",
    "pipe_length_km": null,
    "population": null
   }
  },
  {
   "type": "Feature",
   "geometry": {
    "type": "Polygon",
    "coordinates": [
     [
      [
       75.9151279,
       22.7288645
      ],
      [
       75.9271279,
       22.7288645
      ],
      [
       75.9271279,
       22.7408645
      ],
      [
       75.9151279,
       22.7408645
      ],
      [
       75.9151279,
       22.7288645
      ]
     ]
    ]
   },
   "properties": {
    "zone_id": "IND-050",
    "name": "Ward 7 - Sector 11",
    "city": "Indore",
    "ward": "Ward 7",
    "pipe_length_km": null,
    "population": null
   }
  },
  {
   "type": "Feature",
   "geometry": {
    "type": "Polygon",
    "coordinates": [
     [
      [
       75.8431279,
       22.7408645
      ],
      [
       75.8551279,
       22.7408645
      ],
      [
       75.8551279,
       22.7528645
      ],
      [
       75.8431279,
       22.7528645
      ],
      [
       75.8431279,
       22.7408645
      ]
     ]
    ]
   },
   "properties": {
    "zone_id": "IND-051",
    "name": "Ward 8 - Sector 5",
    "city": "Indore",
    "ward": "Ward 8",
    "pipe_length_km": null,
    "population": null
   }
  },
  {
   "type": "Feature",
   "geometry": {
    "type": "Polygon",
    "coordinates": [
     [
      [
       75.8551279,
       22.7408645
      ],
      [
       75.8671279,
       22.7408645
      ],
      [
       75.8671279,
       22.7528645
      ],
      [
       75.8551279,
       22.7528645
      ],
      [
       75.8551279,
       22.7408645
      ]
     ]
    ]
   },
   "properties": {
    "zone_id": "IND-052",
    "name": "Ward 8 - Sector 6",
    "city": "Indore",
    "ward": "Ward 8",
    "pipe_length_km": null,
    "population": null
   }
  },
  {
   "type": "Feature",
   "geometry": {
    "type": "Polygon",
    "coordinates": [
     [
      [
       75.8671279,
       22.7408645
      ],
      [
       75.8791279,
       22.7408645
      ],
      [
       75.8791279,
       22.7528645
      ],
      [
       75.8671279,
       22.7528645
      ],
      [
       75.8671279,
       22.7408645
      ]
     ]
    ]
   },
   "properties": {
    "zone_id": "IND-053",
    "name": "Ward 8 - Sector 7",
    "city": "Indore",
    "ward": "Ward 8",
    "pipe_length_km": null,
    "population": null
   }
  },
  {
   "type": "Feature",
   "geometry": {
    "type": "Polygon",
    "coordinates": [
     [
      [
       75.8791279,
       22.7408645
      ],
      [
       75.8911279,
       22.7408645
      ],
      [
       75.8911279,
       22.7528645
      ],
      [
       75.8791279,
       22.7528645
      ],
      [
       75.8791279,
       22.7408645
      ]
     ]
    ]
   },
   "properties": {
    "zone_id": "IND-054",
    "name": "Ward 8 - Sector 8",
    "city": "Indore",
    "ward": "Ward 8",
    "pipe_length_km": null,
    "population": null
   }
  },
  {
   "type": "Feature",
   "geometry": {
    "type": "Polygon",
    "coordinates": [
     [
      [
       75.8911279,
       22.7408645
      ],
      [
       75.9031279,
       22.7408645
      ],
      [
       75.9031279,
       22.7528645
      ],
      [
       75.8911279,
       22.7528645
      ],
      [
       75.8911279,
       22.7408645
      ]
     ]
    ]
   },
   "properties": {
    "zone_id": "IND-055",
    "name": "Ward 8 - Sector 9",
    "city": "Indore",
    "ward": "Ward 8",
    "pipe_length_km": null,
    "population": null
   }
  },
  {
   "type": "Feature",
   "geometry": {
    "type": "Polygon",
    "coordinates": [
     [
      [
       75.9031279,
       22.7408645
      ],
      [
       75.9151279,
       22.7408645
      ],
      [
       75.9151279,
       22.7528645
      ],
      [
       75.9031279,
       22.7528645
      ],
      [
       75.9031279,
       22.7408645
      ]
     ]
    ]
   },
   "properties": {
    "zone_id": "IND-056",
    "name": "Ward 8 - Sector 10",
    "city": "Indore",
    "ward": "Ward 8",
    "pipe_length_km": null,
    "population": null
   }
  },
  {
   "type": "Feature",
   "geometry": {
    "type": "Polygon",
    "coordinates": [
     [
      [
       75.9151279,
       22.7408645
      ],
      [
       75.9271279,
       22.7408645
      ],
      [
       75.9271279,
       22.7528645
      ],
      [
       75.9151279,
       22.7528645
      ],
      [
       75.9151279,
       22.7408645
      ]
     ]
    ]
   },
   "properties": {
    "zone_id": "IND-057",
    "name": "Ward 8 - Sector 11",
    "city": "Indore",
    "ward": "Ward 8",
    "pipe_length_km": null,
    "population": null
   }
  },
  {
   "type": "Feature",
   "geometry": {
    "type": "Polygon",
    "coordinates": [
     [
      [
       75.8431279,
       22.7528645
      ],
      [
       75.8551279,
       22.7528645
      ],
      [
       75.8551279,
       22.7648645
      ],
      [
       75.8431279,
       22.7648645
      ],
      [
       75.8431279,
       22.7528645
      ]
     ]
    ]
   },
   "properties": {
    "zone_id": "IND-058",
    "name": "Ward 9 - Sector 5",
    "city": "Indore",
    "ward": "Ward 9",
    "pipe_length_km": null,
    "population": null
   }
  },
  {
   "type": "Feature",
   "geometry": {
    "type": "Polygon",
    "coordinates": [
     [
      [
       75.8551279,
       22.7528645
      ],
      [
       75.8671279,
       22.7528645
      ],
      [
       75.8671279,
       22.7648645
      ],
      [
       75.8551279,
       22.7648645
      ],
      [
       75.8551279,
       22.7528645
      ]
     ]
    ]
   },
   "properties": {
    "zone_id": "IND-059",
    "name": "Ward 9 - Sector 6",
    "city": "Indore",
    "ward": "Ward 9",
    "pipe_length_km": null,
    "population": null
   }
  },
  {
   "type": "Feature",
   "geometry": {
    "type": "Polygon",
    "coordinates": [
     [
      [
       75.8671279,
       22.7528645
      ],
      [
       75.8791279,
       22.7528645
      ],
      [
       75.8791279,
       22.7648645
      ],
      [
       75.8671279,
       22.7648645
      ],
      [
       75.8671279,
       22.7528645
      ]
     ]
    ]
   },
   "properties": {
    "zone_id": "IND-060",
    "name": "Ward 9 - Sector 7",
    "city": "Indore",
    "ward": "Ward 9",
    "pipe_length_km": null,
    "population": null
   }
  },
  {
   "type": "Feature",
   "geometry": {
    "type": "Polygon",
    "coordinates": [
     [
      [
       75.8791279,
       22.7528645
      ],
      [
       75.8911279,
       22.7528645
      ],
      [
       75.8911279,
       22.7648645
      ],
      [
       75.8791279,
       22.7648645
      ],
      [
       75.8791279,
       22.7528645
      ]
     ]
    ]
   },
   "properties": {
    "zone_id": "IND-061",
    "name": "Ward 9 - Sector 8",
    "city": "Indore",
    "ward": "Ward 9",
    "pipe_length_km": null,
    "population": null
   }
  },
  {
   "type": "Feature",
   "geometry": {
    "type": "Polygon",
    "coordinates": [
     [
      [
       75.8911279,
       22.7528645
      ],
      [
       75.9031279,
       22.7528645
      ],
      [
       75.9031279,
       22.7648645
      ],
      [
       75.8911279,
       22.7648645
      ],
      [
       75.8911279,
       22.7528645
      ]
     ]
    ]
   },
   "properties": {
    "zone_id": "IND-062",
    "name": "Ward 9 - Sector 9",
    "city": "Indore",
    "ward": "Ward 9",
    "pipe_length_km": null,
    "population": null
   }
  },
  {
   "type": "Feature",
   "geometry": {
    "type": "Polygon",
    "coordinates": [
     [
      [
       75.8431279,
       22.7648645
      ],
      [
       75.8551279,
       22.7648645
      ],
      [
       75.8551279,
       22.776864500000002
      ],
      [
       75.8431279,
       22.776864500000002
      ],
      [
       75.8431279,
       22.7648645
      ]
     ]
    ]
   },
   "properties": {
    "zone_id": "IND-063",
    "name": "Ward 10 - Sector 5",
    "city": "Indore",
    "ward": "Ward 10",
    "pipe_length_km": null,
    "population": null
   }
  },
  {
   "type": "Feature",
   "geometry": {
    "type": "Polygon",
    "coordinates": [
     [
      [
       75.8551279,
       22.7648645
      ],
      [
       75.8671279,
       22.7648645
      ],
      [
       75.8671279,
       22.776864500000002
      ],
      [
       75.8551279,
       22.776864500000002
      ],
      [
       75.8551279,
       22.7648645
      ]
     ]
    ]
   },
   "properties": {
    "zone_id": "IND-064",
    "name": "Ward 10 - Sector 6",
    "city": "Indore",
    "ward": "Ward 10",
    "pipe_length_km": null,
    "population": null
   }
  },
  {
   "type": "Feature",
   "geometry": {
    "type": "Polygon",
    "coordinates": [
     [
      [
       75.8671279,
       22.7648645
      ],
      [
       75.8791279,
       22.7648645
      ],
      [
       75.8791279,
       22.776864500000002
      ],
      [
       75.8671279,
       22.776864500000002
      ],
      [
       75.8671279,
       22.7648645
      ]
     ]
    ]
   },
   "properties": {
    "zone_id": "IND-065",
    "name": "Ward 10 - Sector 7",
    "city": "Indore",
    "ward": "Ward 10",
    "pipe_length_km": null,
    "population": null
   }
  },
  {
   "type": "Feature",
   "geometry": {
    "type": "Polygon",
    "coordinates": [
     [
      [
       75.8791279,
       22.7648645
      ],
      [
       75.8911279,
       22.7648645
      ],
      [
       75.8911279,
       22.776864500000002
      ],
      [
       75.8791279,
       22.776864500000002
      ],
      [
       75.8791279,
       22.7648645
      ]
     ]
    ]
   },
   "properties": {
    "zone_id": "IND-066",
    "name": "Ward 10 - Sector 8",
    "city": "Indore",
    "ward": "Ward 10",
    "pipe_length_km": null,
    "population": null
   }
  },
  {
   "type": "Feature",
   "geometry": {
    "type": "Polygon",
    "coordinates": [
     [
      [
       75.8911279,
       22.7648645
      ],
      [
       75.9031279,
       22.7648645
      ],
      [
       75.9031279,
       22.776864500000002
      ],
      [
       75.8911279,
       22.776864500000002
      ],
      [
       75.8911279,
       22.7648645
      ]
     ]
    ]
   },
   "properties": {
    "zone_id": "IND-067",
    "name": "Ward 10 - Sector 9",
    "city": "Indore",
    "ward": "Ward 10",
    "pipe_length_km": null,
    "population": null
   }
  },
  {
   "type": "Feature",
   "geometry": {
    "type": "Polygon",
    "coordinates": [
     [
      [
       75.8431279,
       22.776864500000002
      ],
      [
       75.8551279,
       22.776864500000002
      ],
      [
       75.8551279,
       22.788864500000003
      ],
      [
       75.8431279,
       22.788864500000003
      ],
      [
       75.8431279,
       22.776864500000002
      ]
     ]
    ]
   },
   "properties": {
    "zone_id": "IND-068",
    "name": "Ward 11 - Sector 5",
    "city": "Indore",
    "ward": "Ward 11",
    "pipe_length_km": null,
    "population": null
   }
  },
  {
   "type": "Feature",
   "geometry": {
    "type": "Polygon",
    "coordinates": [
     [
      [
       75.8671279,
       22.776864500000002
      ],
      [
       75.8791279,
       22.776864500000002
      ],
      [
       75.8791279,
       22.788864500000003
      ],
      [
       75.8671279,
       22.788864500000003
      ],
      [
       75.8671279,
       22.776864500000002
      ]
     ]
    ]
   },
   "properties": {
    "zone_id": "IND-069",
    "name": "Ward 11 - Sector 7",
    "city": "Indore",
    "ward": "Ward 11",
    "pipe_length_km": null,
    "population": null
   }
  },
  {
   "type": "Feature",
   "geometry": {
    "type": "Polygon",
    "coordinates": [
     [
      [
       75.8791279,
       22.776864500000002
      ],
      [
       75.8911279,
       22.776864500000002
      ],
      [
       75.8911279,
       22.788864500000003
      ],
      [
       75.8791279,
       22.788864500000003
      ],
      [
       75.8791279,
       22.776864500000002
      ]
     ]
    ]
   },
   "properties": {
    "zone_id": "IND-070",
    "name": "Ward 11 - Sector 8",
    "city": "Indore",
    "ward": "Ward 11",
    "pipe_length_km": null,
    "population": null
   }
  }
 ]
}